{
  "type": "FeatureCollection",
  "features": [
    {
      "type": "Feature",
      "properties": {
        "norad_id": 55973,
        "name": "TIANMU-1 03",
        "group": "weather",
        "lat": 45.125756202870804,
        "lon": 150.6806443284548,
        "alt_km": 436.2085609593041,
        "timestamp": "2025-12-21T09:37:22.291479+00:00",
        "meta_object_name": "TIANMU-1 03",
        "meta_object_id": "2023-039A",
        "meta_epoch": "2025-12-21T04:45:03.026016",
        "meta_mean_motion": 15.41150455,
        "meta_eccentricity": 0.0003993,
        "meta_inclination": 97.5106,
        "meta_ra_of_asc_node": 158.0869,
        "meta_arg_of_pericenter": 36.8869,
        "meta_mean_anomaly": 323.2651,
        "meta_ephemeris_type": 0,
        "meta_classification_type": "U",
        "meta_norad_cat_id": 55973,
        "meta_element_set_no": 999,
        "meta_rev_at_epoch": 15336,
        "meta_bstar": 0.00027034,
        "meta_mean_motion_dot": 0.0001112,
        "meta_mean_motion_ddot": 0,
        "tle_line1": "1 55973U 23039A   25355.19795169  .00011120  00000+0  27034-3 0  9996",
        "tle_line2": "2 55973  97.5106 158.0869 0003993  36.8869 323.2651 15.41150455153361"
      },
      "geometry": {
        "type": "Point",
        "coordinates": [
          150.6806443284548,
          45.125756202870804
        ]
      }
    },
    {
      "type": "Feature",
      "properties": {
        "norad_id": 55974,
        "name": "TIANMU-1 04",
        "group": "weather",
        "lat": 9.53548796697398,
        "lon": -21.248125271759083,
        "alt_km": 445.9036972496742,
        "timestamp": "2025-12-21T09:37:22.291489+00:00",
        "meta_object_name": "TIANMU-1 04",
        "meta_object_id": "2023-039B",
        "meta_epoch": "2025-12-21T04:12:46.827072",
        "meta_mean_motion": 15.4149109,
        "meta_eccentricity": 0.0004613,
        "meta_inclination": 97.5038,
        "meta_ra_of_asc_node": 157.2515,
        "meta_arg_of_pericenter": 30.7651,
        "meta_mean_anomaly": 329.3865,
        "meta_ephemeris_type": 0,
        "meta_classification_type": "U",
        "meta_norad_cat_id": 55974,
        "meta_element_set_no": 999,
        "meta_rev_at_epoch": 15336,
        "meta_bstar": 0.00025943,
        "meta_mean_motion_dot": 0.0001079,
        "meta_mean_motion_ddot": 0,
        "tle_line1": "1 55974U 23039B   25355.17554198  .00010790  00000+0  25943-3 0  9999",
        "tle_line2": "2 55974  97.5038 157.2515 0004613  30.7651 329.3865 15.41491090153364"
      },
      "geometry": {
        "type": "Point",
        "coordinates": [
          -21.248125271759083,
          9.53548796697398
        ]
      }
    },
    {
      "type": "Feature",
      "properties": {
        "norad_id": 55975,
        "name": "TIANMU-1 05",
        "group": "weather",
        "lat": -10.30565820673761,
        "lon": -23.398464267491065,
        "alt_km": 449.16634376384445,
        "timestamp": "2025-12-21T09:37:22.291500+00:00",
        "meta_object_name": "TIANMU-1 05",
        "meta_object_id": "2023-039C",
        "meta_epoch": "2025-12-21T04:07:30.321408",
        "meta_mean_motion": 15.41107363,
        "meta_eccentricity": 0.0004084,
        "meta_inclination": 97.5085,
        "meta_ra_of_asc_node": 157.7404,
        "meta_arg_of_pericenter": 55.5241,
        "meta_mean_anomaly": 304.6391,
        "meta_ephemeris_type": 0,
        "meta_classification_type": "U",
        "meta_norad_cat_id": 55975,
        "meta_element_set_no": 999,
        "meta_rev_at_epoch": 15334,
        "meta_bstar": 0.00026172,
        "meta_mean_motion_dot": 0.00010747,
        "meta_mean_motion_ddot": 0,
        "tle_line1": "1 55975U 23039C   25355.17187872  .00010747  00000+0  26172-3 0  9998",
        "tle_line2": "2 55975  97.5085 157.7404 0004084  55.5241 304.6391 15.41107363153346"
      },
      "geometry": {
        "type": "Point",
        "coordinates": [
          -23.398464267491065,
          -10.30565820673761
        ]
      }
    },
    {
      "type": "Feature",
      "properties": {
        "norad_id": 55976,
        "name": "TIANMU-1 06",
        "group": "weather",
        "lat": 19.874872778271016,
        "lon": -18.818617465262665,
        "alt_km": 442.811331605797,
        "timestamp": "2025-12-21T09:37:22.291510+00:00",
        "meta_object_name": "TIANMU-1 06",
        "meta_object_id": "2023-039D",
        "meta_epoch": "2025-12-21T04:15:30.306240",
        "meta_mean_motion": 15.41542574,
        "meta_eccentricity": 0.0004369,
        "meta_inclination": 97.5095,
        "meta_ra_of_asc_node": 158.2182,
        "meta_arg_of_pericenter": 49.6109,
        "meta_mean_anomaly": 310.5518,
        "meta_ephemeris_type": 0,
        "meta_classification_type": "U",
        "meta_norad_cat_id": 55976,
        "meta_element_set_no": 999,
        "meta_rev_at_epoch": 15336,
        "meta_bstar": 0.00025556,
        "meta_mean_motion_dot": 0.00010645,
        "meta_mean_motion_ddot": 0,
        "tle_line1": "1 55976U 23039D   25355.17743410  .00010645  00000+0  25556-3 0  9997",
        "tle_line2": "2 55976  97.5095 158.2182 0004369  49.6109 310.5518 15.41542574153366"
      },
      "geometry": {
        "type": "Point",
        "coordinates": [
          -18.818617465262665,
          19.874872778271016
        ]
      }
    },
    {
      "type": "Feature",
      "properties": {
        "norad_id": 56232,
        "name": "FENGYUN 3G",
        "group": "weather",
        "lat": -18.430740489759497,
        "lon": 166.4866023855548,
        "alt_km": 412.6580371223963,
        "timestamp": "2025-12-21T09:37:22.291520+00:00",
        "meta_object_name": "FENGYUN 3G",
        "meta_object_id": "2023-055A",
        "meta_epoch": "2025-12-21T00:28:08.178240",
        "meta_mean_motion": 15.54101583,
        "meta_eccentricity": 0.0009287,
        "meta_inclination": 49.9915,
        "meta_ra_of_asc_node": 184.7126,
        "meta_arg_of_pericenter": 185.9215,
        "meta_mean_anomaly": 174.1645,
        "meta_ephemeris_type": 0,
        "meta_classification_type": "U",
        "meta_norad_cat_id": 56232,
        "meta_element_set_no": 999,
        "meta_rev_at_epoch": 15231,
        "meta_bstar": 0.00036063,
        "meta_mean_motion_dot": 0.00023517,
        "meta_mean_motion_ddot": 0,
        "tle_line1": "1 56232U 23055A   25355.01953910  .00023517  00000+0  36063-3 0  9999",
        "tle_line2": "2 56232  49.9915 184.7126 0009287 185.9215 174.1645 15.54101583152316"
      },
      "geometry": {
        "type": "Point",
        "coordinates": [
          166.4866023855548,
          -18.430740489759497
        ]
      }
    },
    {
      "type": "Feature",
      "properties": {
        "norad_id": 57166,
        "name": "METEOR-M2 3",
        "group": "weather",
        "lat": -16.15668624329414,
        "lon": 51.31223174931997,
        "alt_km": 814.0600993889511,
        "timestamp": "2025-12-21T09:37:22.291564+00:00",
        "meta_object_name": "METEOR-M2 3",
        "meta_object_id": "2023-091A",
        "meta_epoch": "2025-12-21T04:38:25.581696",
        "meta_mean_motion": 14.24027006,
        "meta_eccentricity": 0.000344,
        "meta_inclination": 98.6365,
        "meta_ra_of_asc_node": 48.5847,
        "meta_arg_of_pericenter": 343.2663,
        "meta_mean_anomaly": 16.8402,
        "meta_ephemeris_type": 0,
        "meta_classification_type": "U",
        "meta_norad_cat_id": 57166,
        "meta_element_set_no": 999,
        "meta_rev_at_epoch": 12918,
        "meta_bstar": 1.8155e-05,
        "meta_mean_motion_dot": -2e-08,
        "meta_mean_motion_ddot": 0,
        "tle_line1": "1 57166U 23091A   25355.19335164 -.00000002  00000+0  18155-4 0  9998",
        "tle_line2": "2 57166  98.6365  48.5847 0003440 343.2663  16.8402 14.24027006129186"
      },
      "geometry": {
        "type": "Point",
        "coordinates": [
          51.31223174931997,
          -16.15668624329414
        ]
      }
    },
    {
      "type": "Feature",
      "properties": {
        "norad_id": 57399,
        "name": "TIANMU-1 07",
        "group": "weather",
        "lat": 8.437633076051679,
        "lon": -133.85249265222177,
        "alt_km": 484.5364867472681,
        "timestamp": "2025-12-21T09:37:22.291581+00:00",
        "meta_object_name": "TIANMU-1 07",
        "meta_object_id": "2023-101A",
        "meta_epoch": "2025-12-21T04:09:40.527936",
        "meta_mean_motion": 15.28181078,
        "meta_eccentricity": 0.0005263,
        "meta_inclination": 97.2864,
        "meta_ra_of_asc_node": 44.8374,
        "meta_arg_of_pericenter": 60.1049,
        "meta_mean_anomaly": 300.0713,
        "meta_ephemeris_type": 0,
        "meta_classification_type": "U",
        "meta_norad_cat_id": 57399,
        "meta_element_set_no": 999,
        "meta_rev_at_epoch": 13444,
        "meta_bstar": 0.00018844,
        "meta_mean_motion_dot": 5.104e-05,
        "meta_mean_motion_ddot": 0,
        "tle_line1": "1 57399U 23101A   25355.17338574  .00005104  00000+0  18844-3 0  9995",
        "tle_line2": "2 57399  97.2864  44.8374 0005263  60.1049 300.0713 15.28181078134448"
      },
      "geometry": {
        "type": "Point",
        "coordinates": [
          -133.85249265222177,
          8.437633076051679
        ]
      }
    }
  ]
}